COMMENT,ORIGINATOR,NORAD_CAT_ID,OBJECT_NAME,OBJECT_TYPE,CLASSIFICATION_TYPE,INTLDES,EPOCH,EPOCH_MICROSECONDS,MEAN_MOTION,ECCENTRICITY,INCLINATION,RA_OF_ASC_NODE,ARG_OF_PERICENTER,MEAN_ANOMALY,EPHEMERIS_TYPE,ELEMENT_SET_NO,REV_AT_EPOCH,BSTAR,MEAN_MOTION_DOT,MEAN_MOTION_DDOT,FILE,TLE_LINE0,TLE_LINE1,TLE_LINE2,OBJECT_ID,OBJECT_NUMBER,SEMIMAJOR_AXIS,PERIOD,APOGEE,PERIGEE,DECAYED,date
GENERATED VIA SPACETRACK.ORG API,18 SPCS,48888,SPACEBEE-103,PAYLOAD,U,21059K,2023/4/29 7:27,180928,15.28997263,0.000684,97.5882,255.2292,92.1954,268.0069,0,999,10192,0.0011323,0.0003193,0,3896517,0 SPACEBEE-103,1 48888U 21059K   23119.31061552  .00031930  00000-0  11323-2 0  9990,2 48888  97.5882 255.2292 0006840  92.1954 268.0069 15.28997263101928,2021-059K,48888,6856.946,94.179,483.501,474.12,0,
GENERATED VIA SPACETRACK.ORG API,18 SPCS,48888,SPACEBEE-103,PAYLOAD,U,21059K,2023/4/30 3:52,716192,15.29055045,0.0006792,97.5881,256.0968,89.5231,270.6786,0,999,10205,0.0011368,0.00032114,0,3897007,0 SPACEBEE-103,1 48888U 21059K   23120.16137403  .00032114  00000-0  11368-2 0  9998,2 48888  97.5881 256.0968 0006792  89.5231 270.6786 15.29055045102054,2021-059K,48888,6856.773,94.176,483.295,473.981,0,
GENERATED VIA SPACETRACK.ORG API,18 SPCS,48888,SPACEBEE-103,PAYLOAD,U,21059K,2023/4/30 8:35,172000,15.2906746,0.00068,97.5881,256.297,88.7946,271.4072,0,999,10208,0.0010924,0.00030864,0,3897442,0 SPACEBEE-103,1 48888U 21059K   23120.35769875  .00030864  00000-0  10924-2 0  9990,2 48888  97.5881 256.2970 0006800  88.7946 271.4072 15.29067460102087,2021-059K,48888,6856.736,94.175,483.263,473.938,0,
